start=new Date('2023-01-14T00:00:00.000Z').valueOf();
sats=[{"ECCENTRICITY":"0.00022170","TIME_SYSTEM":"UTC","CENTER_NAME":"EARTH","RCS_SIZE":"LARGE","MEAN_MOTION_DDOT":"0.0000000000000","SEMIMAJOR_AXIS":"6925.373","EPHEMERIS_TYPE":"0","ELEMENT_SET_NO":"999","MEAN_ANOMALY":"306.1265","ARG_OF_PERICENTER":"53.9929","RA_OF_ASC_NODE":"48.0661","REF_FRAME":"TEME","PERIAPSIS":"545.702","MEAN_ELEMENT_THEORY":"SGP4","MEAN_MOTION":"15.06392112","EPOCH":"2023-01-13T19:44:20.595840","OBJECT_TYPE":"PAYLOAD","SITE":"AFETR","DECAY_DATE":null,"FILE":"3743722","OBJECT_ID":"2021-021AH","TLE_LINE2":"2 47891  53.0536  48.0661 0002217  53.9929 306.1265 15.06392112102755","PERIOD":"95.593","MEAN_MOTION_DOT":"-0.00002337","NORAD_CAT_ID":"47891","INCLINATION":"53.0536","LAUNCH_DATE":"2021-03-14","COUNTRY_CODE":"US","APOAPSIS":"548.773","GP_ID":"222972598","BSTAR":"-0.00013804000000","TLE_LINE1":"1 47891U 21021AH  23013.82246060 -.00002337  00000-0 -13804-3 0  9998","CLASSIFICATION_TYPE":"U","OBJECT_NAME":"STARLINK-2351","REV_AT_EPOCH":"10275"},{"TLE_LINE1":"1 47892U 21021AJ  23013.74703248  .00000129  00000-0  21950-4 0  9993","OBJECT_NAME":"STARLINK-2352","CLASSIFICATION_TYPE":"U","REV_AT_EPOCH":"10292","BSTAR":"0.00002195000000","GP_ID":"222971852","APOAPSIS":"515.652","COUNTRY_CODE":"US","LAUNCH_DATE":"2021-03-14","INCLINATION":"53.0517","PERIOD":"94.900","TLE_LINE2":"2 47892  53.0517  24.4149 0002790  24.4083 335.7043 15.17391762102927","MEAN_MOTION_DOT":"0.00000129","OBJECT_ID":"2021-021AJ","NORAD_CAT_ID":"47892","SITE":"AFETR","FILE":"3743722","DECAY_DATE":null,"EPOCH":"2023-01-13T17:55:43.606272","MEAN_MOTION":"15.17391762","OBJECT_TYPE":"PAYLOAD","MEAN_ELEMENT_THEORY":"SGP4","REF_FRAME":"TEME","PERIAPSIS":"511.806","MEAN_ANOMALY":"335.7043","ARG_OF_PERICENTER":"24.4083","RA_OF_ASC_NODE":"24.4149","EPHEMERIS_TYPE":"0","MEAN_MOTION_DDOT":"0.0000000000000","SEMIMAJOR_AXIS":"6891.864","ELEMENT_SET_NO":"999","RCS_SIZE":"LARGE","CENTER_NAME":"EARTH","TIME_SYSTEM":"UTC","ECCENTRICITY":"0.00027900"},{"RCS_SIZE":"LARGE","CENTER_NAME":"EARTH","TIME_SYSTEM":"UTC","ECCENTRICITY":"0.00021740","MEAN_ELEMENT_THEORY":"SGP4","REF_FRAME":"TEME","PERIAPSIS":"545.744","RA_OF_ASC_NODE":"38.2663","ARG_OF_PERICENTER":"38.7079","MEAN_ANOMALY":"321.4065","ELEMENT_SET_NO":"999","EPHEMERIS_TYPE":"0","MEAN_MOTION_DDOT":"0.0000000000000","SEMIMAJOR_AXIS":"6925.385","INCLINATION":"53.0544","NORAD_CAT_ID":"47894","PERIOD":"95.593","TLE_LINE2":"2 47894  53.0544  38.2663 0002174  38.7079 321.4065 15.06388126102678","MEAN_MOTION_DOT":"-0.00005482","OBJECT_ID":"2021-021AL","FILE":"3743722","DECAY_DATE":null,"SITE":"AFETR","OBJECT_TYPE":"PAYLOAD","EPOCH":"2023-01-13T18:41:57.441984","MEAN_MOTION":"15.06388126","OBJECT_NAME":"STARLINK-2354","REV_AT_EPOCH":"10267","CLASSIFICATION_TYPE":"U","TLE_LINE1":"1 47894U 21021AL  23013.77913706 -.00005482  00000-0 -34952-3 0  9994","BSTAR":"-0.00034952000000","GP_ID":"222972102","APOAPSIS":"548.756","COUNTRY_CODE":"US","LAUNCH_DATE":"2021-03-14"},{"ECCENTRICITY":"0.00018000","TIME_SYSTEM":"UTC","CENTER_NAME":"EARTH","RCS_SIZE":"LARGE","ELEMENT_SET_NO":"999","EPHEMERIS_TYPE":"0","SEMIMAJOR_AXIS":"6925.415","MEAN_MOTION_DDOT":"0.0000000000000","RA_OF_ASC_NODE":"38.2021","ARG_OF_PERICENTER":"55.9913","MEAN_ANOMALY":"304.1246","MEAN_ELEMENT_THEORY":"SGP4","REF_FRAME":"TEME","PERIAPSIS":"546.034","OBJECT_TYPE":"PAYLOAD","EPOCH":"2023-01-13T18:57:55.234368","MEAN_MOTION":"15.06378231","FILE":"3743722","DECAY_DATE":null,"SITE":"AFETR","NORAD_CAT_ID":"47895","PERIOD":"95.594","TLE_LINE2":"2 47895  53.0555  38.2021 0001800  55.9913 304.1246 15.06378231102701","OBJECT_ID":"2021-021AM","MEAN_MOTION_DOT":"0.00015182","INCLINATION":"53.0555","COUNTRY_CODE":"US","LAUNCH_DATE":"2021-03-14","APOAPSIS":"548.527","BSTAR":"0.00103650000000","GP_ID":"222972352","CLASSIFICATION_TYPE":"U","OBJECT_NAME":"STARLINK-2355","REV_AT_EPOCH":"10270","TLE_LINE1":"1 47895U 21021AM  23013.79022262  .00015182  00000-0  10365-2 0  9992"},{"TIME_SYSTEM":"UTC","ECCENTRICITY":"0.00013910","RCS_SIZE":"LARGE","CENTER_NAME":"EARTH","MEAN_ANOMALY":"264.9081","ARG_OF_PERICENTER":"95.2066","RA_OF_ASC_NODE":"54.4319","SEMIMAJOR_AXIS":"6925.316","MEAN_MOTION_DDOT":"0.0000000000000","EPHEMERIS_TYPE":"0","ELEMENT_SET_NO":"999","PERIAPSIS":"546.217","REF_FRAME":"TEME","MEAN_ELEMENT_THEORY":"SGP4","SITE":"AFETR","DECAY_DATE":null,"FILE":"3743417","MEAN_MOTION":"15.06410742","EPOCH":"2023-01-13T12:25:48.402912","OBJECT_TYPE":"PAYLOAD","INCLINATION":"53.0540","PERIOD":"95.591","TLE_LINE2":"2 47896  53.0540  54.4319 0001391  95.2066 264.9081 15.06410742102420","OBJECT_ID":"2021-021AN","MEAN_MOTION_DOT":"0.00006489","NORAD_CAT_ID":"47896","APOAPSIS":"548.144","LAUNCH_DATE":"2021-03-14","COUNTRY_CODE":"US","TLE_LINE1":"1 47896U 21021AN  23013.51792133  .00006489  00000-0  45400-3 0  9993","CLASSIFICATION_TYPE":"U","REV_AT_EPOCH":"10242","OBJECT_NAME":"STARLINK-2356","GP_ID":"222940331","BSTAR":"0.00045400000000"},{"ELEMENT_SET_NO":"999","SEMIMAJOR_AXIS":"6925.367","MEAN_MOTION_DDOT":"0.0000000000000","EPHEMERIS_TYPE":"0","RA_OF_ASC_NODE":"38.2190","ARG_OF_PERICENTER":"85.9405","MEAN_ANOMALY":"274.1764","PERIAPSIS":"546.141","REF_FRAME":"TEME","MEAN_ELEMENT_THEORY":"SGP4","ECCENTRICITY":"0.00015750","TIME_SYSTEM":"UTC","CENTER_NAME":"EARTH","RCS_SIZE":"LARGE","LAUNCH_DATE":"2021-03-14","COUNTRY_CODE":"US","APOAPSIS":"548.323","GP_ID":"222971353","BSTAR":"0.00007957600000","CLASSIFICATION_TYPE":"U","OBJECT_NAME":"STARLINK-2357","REV_AT_EPOCH":"10273","TLE_LINE1":"1 47897U 21021AP  23013.78928263  .00000904  00000-0  79576-4 0  9996","OBJECT_TYPE":"PAYLOAD","MEAN_MOTION":"15.06393971","EPOCH":"2023-01-13T18:56:34.019232","FILE":"3743722","DECAY_DATE":null,"SITE":"AFETR","NORAD_CAT_ID":"47897","PERIOD":"95.593","TLE_LINE2":"2 47897  53.0538  38.2190 0001575  85.9405 274.1764 15.06393971102731","OBJECT_ID":"2021-021AP","MEAN_MOTION_DOT":"0.00000904","INCLINATION":"53.0538"},{"OBJECT_TYPE":"PAYLOAD","EPOCH":"2023-01-13T18:47:18.604608","MEAN_MOTION":"15.06392006","DECAY_DATE":null,"FILE":"3743722","SITE":"AFETR","NORAD_CAT_ID":"47898","TLE_LINE2":"2 47898  53.0528  38.2512 0002352  47.3842 312.7345 15.06392006102675","OBJECT_ID":"2021-021AQ","PERIOD":"95.593","MEAN_MOTION_DOT":"0.00005648","INCLINATION":"53.0528","LAUNCH_DATE":"2021-03-14","COUNTRY_CODE":"US","APOAPSIS":"548.867","BSTAR":"0.00039787000000","GP_ID":"222971603","OBJECT_NAME":"STARLINK-2358","CLASSIFICATION_TYPE":"U","REV_AT_EPOCH":"10267","TLE_LINE1":"1 47898U 21021AQ  23013.78285422  .00005648  00000-0  39787-3 0  9999","ECCENTRICITY":"0.00023520","TIME_SYSTEM":"UTC","CENTER_NAME":"EARTH","RCS_SIZE":"LARGE","ELEMENT_SET_NO":"999","EPHEMERIS_TYPE":"0","SEMIMAJOR_AXIS":"6925.373","MEAN_MOTION_DDOT":"0.0000000000000","RA_OF_ASC_NODE":"38.2512","MEAN_ANOMALY":"312.7345","ARG_OF_PERICENTER":"47.3842","MEAN_ELEMENT_THEORY":"SGP4","PERIAPSIS":"545.609","REF_FRAME":"TEME"},{"PERIAPSIS":"545.495","REF_FRAME":"TEME","MEAN_ELEMENT_THEORY":"SGP4","RA_OF_ASC_NODE":"27.9471","MEAN_ANOMALY":"327.6855","ARG_OF_PERICENTER":"32.4286","ELEMENT_SET_NO":"999","MEAN_MOTION_DDOT":"0.0000000000000","SEMIMAJOR_AXIS":"6925.353","EPHEMERIS_TYPE":"0","RCS_SIZE":"LARGE","CENTER_NAME":"EARTH","TIME_SYSTEM":"UTC","ECCENTRICITY":"0.00024880","CLASSIFICATION_TYPE":"U","OBJECT_NAME":"STARLINK-2359","REV_AT_EPOCH":"10288","TLE_LINE1":"1 47899U 21021AR  23013.84546971 -.00000147  00000-0  90559-5 0  9992","GP_ID":"222972852","BSTAR":"0.00000905590000","APOAPSIS":"548.941","COUNTRY_CODE":"US","LAUNCH_DATE":"2021-03-14","INCLINATION":"53.0560","NORAD_CAT_ID":"47899","MEAN_MOTION_DOT":"-0.00000147","TLE_LINE2":"2 47899  53.0560  27.9471 0002488  32.4286 327.6855 15.06398501102888","PERIOD":"95.592","OBJECT_ID":"2021-021AR","FILE":"3743722","DECAY_DATE":null,"SITE":"AFETR","OBJECT_TYPE":"PAYLOAD","MEAN_MOTION":"15.06398501","EPOCH":"2023-01-13T20:17:28.582944"},{"COUNTRY_CODE":"US","LAUNCH_DATE":"2021-03-14","APOAPSIS":"548.497","BSTAR":"0.00010180000000","GP_ID":"222939830","REV_AT_EPOCH":"10266","OBJECT_NAME":"STARLINK-2360","CLASSIFICATION_TYPE":"U","TLE_LINE1":"1 47900U 21021AS  23013.33959063  .00001235  00000-0  10180-3 0  9997","OBJECT_TYPE":"PAYLOAD","EPOCH":"2023-01-13T08:09:00.630432","MEAN_MOTION":"15.06393969","FILE":"3743417","DECAY_DATE":null,"SITE":"AFETR","NORAD_CAT_ID":"47900","TLE_LINE2":"2 47900  53.0531  40.2396 0001826  58.9186 301.1982 15.06393969102667","PERIOD":"95.593","OBJECT_ID":"2021-021AS","MEAN_MOTION_DOT":"0.00001235","INCLINATION":"53.0531","ELEMENT_SET_NO":"999","EPHEMERIS_TYPE":"0","SEMIMAJOR_AXIS":"6925.367","MEAN_MOTION_DDOT":"0.0000000000000","RA_OF_ASC_NODE":"40.2396","ARG_OF_PERICENTER":"58.9186","MEAN_ANOMALY":"301.1982","MEAN_ELEMENT_THEORY":"SGP4","REF_FRAME":"TEME","PERIAPSIS":"545.967","ECCENTRICITY":"0.00018260","TIME_SYSTEM":"UTC","CENTER_NAME":"EARTH","RCS_SIZE":"LARGE"},{"ECCENTRICITY":"0.00029110","TIME_SYSTEM":"UTC","CENTER_NAME":"EARTH","RCS_SIZE":"LARGE","ELEMENT_SET_NO":"999","EPHEMERIS_TYPE":"0","SEMIMAJOR_AXIS":"6925.342","MEAN_MOTION_DDOT":"0.0000000000000","RA_OF_ASC_NODE":"28.3939","MEAN_ANOMALY":"322.1520","ARG_OF_PERICENTER":"37.9673","MEAN_ELEMENT_THEORY":"SGP4","REF_FRAME":"TEME","PERIAPSIS":"545.191","OBJECT_TYPE":"PAYLOAD","EPOCH":"2023-01-13T18:27:22.941792","MEAN_MOTION":"15.06402279","DECAY_DATE":null,"FILE":"3743722","SITE":"AFETR","NORAD_CAT_ID":"47901","TLE_LINE2":"2 47901  53.0559  28.3939 0002911  37.9673 322.1520 15.06402279102859","PERIOD":"95.592","OBJECT_ID":"2021-021AT","MEAN_MOTION_DOT":"0.00000257","INCLINATION":"53.0559","COUNTRY_CODE":"US","LAUNCH_DATE":"2021-03-14","APOAPSIS":"549.223","BSTAR":"0.00003619700000","GP_ID":"222971853","CLASSIFICATION_TYPE":"U","REV_AT_EPOCH":"10285","OBJECT_NAME":"STARLINK-2361","TLE_LINE1":"1 47901U 21021AT  23013.76901553  .00000257  00000-0  36197-4 0  9996"}];
